STARLINK-31750          
1 59552U 24074U   26068.09884508 -.00002253  00000+0 -72380-4 0  9994
2 59552  43.0053 346.8855 0001350 260.2183  99.8516 15.27567967105923
FLOCK 4G-21             
1 62651U 25009AU  26068.19487675  .00013648  00000+0  49619-3 0  9998
2 62651  97.4032 151.1274 0000465 329.5782  30.5431 15.28381075 63677
